IRIDIUM 136             
1 42962U 17061H   24130.54401041  .00000474  00000+0  16201-3 0  9994
2 42962  86.3980 346.4799 0002415  83.2813 276.8658 14.34221332344668
